[
    {
        "Altitude(m)": 707306.2043488217,
        "Argument of Periapsis(deg)": 0.006834072711976239,
        "Eccentricity": 0.0,
        "Inclination(deg)": 45.0,
        "Latitude(deg)": 45.14051559070723,
        "Longitude(deg)": -152.22824577889153,
        "Mean Anomaly(deg)": 88.73812998848852,
        "RAAN(deg)": 219.99354883512507,
        "Satellite Name": "Constellation 1 973",
        "Satellite Number": 973,
        "Semi-Major Axis(m)": 7083131.272910544,
        "Time(s)": 114
    },
    {
        "Altitude(m)": 707306.506708052,
        "Argument of Periapsis(deg)": 0.006894020718221645,
        "Eccentricity": 0.0,
        "Inclination(deg)": 45.0,
        "Latitude(deg)": 45.14181637505076,
        "Longitude(deg)": -152.14650001174883,
        "Mean Anomaly(deg)": 88.7988311287384,
        "RAAN(deg)": 219.99349224595952,
        "Satellite Name": "Constellation 1 973",
        "Satellite Number": 973,
        "Semi-Major Axis(m)": 7083131.272910544,
        "Time(s)": 115
    },
    {
        "Altitude(m)": 707306.7944448421,
        "Argument of Periapsis(deg)": 0.006953968724467052,
        "Eccentricity": 0.0,
        "Inclination(deg)": 45.0,
        "Latitude(deg)": 45.1430526444181,
        "Longitude(deg)": -152.06475043959992,
        "Mean Anomaly(deg)": 88.85953226898832,
        "RAAN(deg)": 219.99343565679393,
        "Satellite Name": "Constellation 1 973",
        "Satellite Number": 973,
        "Semi-Major Axis(m)": 7083131.272910544,
        "Time(s)": 116
    },
    {
        "Altitude(m)": 707307.0675575314,
        "Argument of Periapsis(deg)": 0.007013916730712457,
        "Eccentricity": 0.0,
        "Inclination(deg)": 45.0,
        "Latitude(deg)": 45.14422439328889,
        "Longitude(deg)": -151.9829972556657,
        "Mean Anomaly(deg)": 88.92023340923815,
        "RAAN(deg)": 219.99337906762838,
        "Satellite Name": "Constellation 1 973",
        "Satellite Number": 973,
        "Semi-Major Axis(m)": 7083131.272910544,
        "Time(s)": 117
    },
    {
        "Altitude(m)": 707307.3260445746,
        "Argument of Periapsis(deg)": 0.007073864736957864,
        "Eccentricity": 0.0,
        "Inclination(deg)": 45.0,
        "Latitude(deg)": 45.14533161643027,
        "Longitude(deg)": -151.90124065323195,
        "Mean Anomaly(deg)": 88.98093454948814,
        "RAAN(deg)": 219.99332247846283,
        "Satellite Name": "Constellation 1 973",
        "Satellite Number": 973,
        "Semi-Major Axis(m)": 7083131.272910544,
        "Time(s)": 118
    },
    {
        "Altitude(m)": 707307.5699044853,
        "Argument of Periapsis(deg)": 0.0071338127432032696,
        "Eccentricity": 0.0,
        "Inclination(deg)": 45.0,
        "Latitude(deg)": 45.14637430889739,
        "Longitude(deg)": -151.819480993743,
        "Mean Anomaly(deg)": 89.041635689738,
        "RAAN(deg)": 219.99326588929722,
        "Satellite Name": "Constellation 1 973",
        "Satellite Number": 973,
        "Semi-Major Axis(m)": 7083131.272910544,
        "Time(s)": 119
    },
    {
        "Altitude(m)": 707307.7991358737,
        "Argument of Periapsis(deg)": 0.007193760749448674,
        "Eccentricity": 0.0,
        "Inclination(deg)": 45.0,
        "Latitude(deg)": 45.147352466032316,
        "Longitude(deg)": -151.7377181344105,
        "Mean Anomaly(deg)": 89.10233682998788,
        "RAAN(deg)": 219.99320930013167,
        "Satellite Name": "Constellation 1 973",
        "Satellite Number": 973,
        "Semi-Major Axis(m)": 7083131.272910544,
        "Time(s)": 120
    },
    {
        "Altitude(m)": 707308.0137374434,
        "Argument of Periapsis(deg)": 0.007253708755694079,
        "Eccentricity": 0.0,
        "Inclination(deg)": 45.0,
        "Latitude(deg)": 45.148266083465884,
        "Longitude(deg)": -151.65595243679132,
        "Mean Anomaly(deg)": 89.16303797023782,
        "RAAN(deg)": 219.99315271096611,
        "Satellite Name": "Constellation 1 973",
        "Satellite Number": 973,
        "Semi-Major Axis(m)": 7083131.272910544,
        "Time(s)": 121
    },
    {
        "Altitude(m)": 707308.2137079649,
        "Argument of Periapsis(deg)": 0.0073136567619394854,
        "Eccentricity": 0.0,
        "Inclination(deg)": 45.0,
        "Latitude(deg)": 45.14911515711667,
        "Longitude(deg)": -151.57418409439677,
        "Mean Anomaly(deg)": 89.22373911048768,
        "RAAN(deg)": 219.99309612180053,
        "Satellite Name": "Constellation 1 973",
        "Satellite Number": 973,
        "Semi-Major Axis(m)": 7083131.272910544,
        "Time(s)": 122
    },
    {
        "Altitude(m)": 707308.3990463201,
        "Argument of Periapsis(deg)": 0.0073736047681848904,
        "Eccentricity": 0.0,
        "Inclination(deg)": 45.0,
        "Latitude(deg)": 45.149899683191215,
        "Longitude(deg)": -151.49241330078559,
        "Mean Anomaly(deg)": 89.28444025073757,
        "RAAN(deg)": 219.99303953263498,
        "Satellite Name": "Constellation 1 973",
        "Satellite Number": 973,
        "Semi-Major Axis(m)": 7083131.272910544,
        "Time(s)": 123
    },
    {
        "Altitude(m)": 707308.5697514471,
        "Argument of Periapsis(deg)": 0.007433552774430298,
        "Eccentricity": 0.0,
        "Inclination(deg)": 45.0,
        "Latitude(deg)": 45.150619658184354,
        "Longitude(deg)": -151.41064024956069,
        "Mean Anomaly(deg)": 89.34514139098748,
        "RAAN(deg)": 219.99298294346937,
        "Satellite Name": "Constellation 1 973",
        "Satellite Number": 973,
        "Semi-Major Axis(m)": 7083131.272910544,
        "Time(s)": 124
    },
    {
        "Altitude(m)": 707308.7258223908,
        "Argument of Periapsis(deg)": 0.007493500780675703,
        "Eccentricity": 0.0,
        "Inclination(deg)": 45.0,
        "Latitude(deg)": 45.15127507887907,
        "Longitude(deg)": -151.32886513436594,
        "Mean Anomaly(deg)": 89.40584253123741,
        "RAAN(deg)": 219.99292635430382,
        "Satellite Name": "Constellation 1 973",
        "Satellite Number": 973,
        "Semi-Major Axis(m)": 7083131.272910544,
        "Time(s)": 125
    },
    {
        "Altitude(m)": 707308.8672582752,
        "Argument of Periapsis(deg)": 0.007553448786921108,
        "Eccentricity": 0.0,
        "Inclination(deg)": 45.0,
        "Latitude(deg)": 45.15186594234694,
        "Longitude(deg)": -151.24708831697896,
        "Mean Anomaly(deg)": 89.46654367148732,
        "RAAN(deg)": 219.99286976513824,
        "Satellite Name": "Constellation 1 973",
        "Satellite Number": 973,
        "Semi-Major Axis(m)": 7083131.272910544,
        "Time(s)": 126
    },
    {
        "Altitude(m)": 707308.9940583053,
        "Argument of Periapsis(deg)": 0.007613396793166514,
        "Eccentricity": 0.0,
        "Inclination(deg)": 45.0,
        "Latitude(deg)": 45.15239224594708,
        "Longitude(deg)": -151.16530965492055,
        "Mean Anomaly(deg)": 89.52724481173718,
        "RAAN(deg)": 219.99281317597269,
        "Satellite Name": "Constellation 1 973",
        "Satellite Number": 973,
        "Semi-Major Axis(m)": 7083131.272910544,
        "Time(s)": 127
    },
    {
        "Altitude(m)": 707309.1062217797,
        "Argument of Periapsis(deg)": 0.007673344799411918,
        "Eccentricity": 0.0,
        "Inclination(deg)": 45.0,
        "Latitude(deg)": 45.15285398732786,
        "Longitude(deg)": -151.0835295100323,
        "Mean Anomaly(deg)": 89.58794595198711,
        "RAAN(deg)": 219.99275658680713,
        "Satellite Name": "Constellation 1 973",
        "Satellite Number": 973,
        "Semi-Major Axis(m)": 7083131.272910544,
        "Time(s)": 128
    },
    {
        "Altitude(m)": 707309.2037480732,
        "Argument of Periapsis(deg)": 0.007733292805657325,
        "Eccentricity": 0.0,
        "Inclination(deg)": 45.0,
        "Latitude(deg)": 45.15325116442584,
        "Longitude(deg)": -151.00174807608585,
        "Mean Anomaly(deg)": 89.648647092237,
        "RAAN(deg)": 219.99269999764152,
        "Satellite Name": "Constellation 1 973",
        "Satellite Number": 973,
        "Semi-Major Axis(m)": 7083131.272910544,
        "Time(s)": 129
    },
    {
        "Altitude(m)": 707309.2866366574,
        "Argument of Periapsis(deg)": 0.00779324081190273,
        "Eccentricity": 0.0,
        "Inclination(deg)": 45.0,
        "Latitude(deg)": 45.1535837754661,
        "Longitude(deg)": -150.91996554687577,
        "Mean Anomaly(deg)": 89.7093482324869,
        "RAAN(deg)": 219.99264340847597,
        "Satellite Name": "Constellation 1 973",
        "Satellite Number": 973,
        "Semi-Major Axis(m)": 7083131.272910544,
        "Time(s)": 130
    },
    {
        "Altitude(m)": 707309.3548870797,
        "Argument of Periapsis(deg)": 0.007853188818148135,
        "Eccentricity": 0.0,
        "Inclination(deg)": 45.0,
        "Latitude(deg)": 45.15385181896224,
        "Longitude(deg)": -150.83818211621673,
        "Mean Anomaly(deg)": 89.77004937273679,
        "RAAN(deg)": 219.9925868193104,
        "Satellite Name": "Constellation 1 973",
        "Satellite Number": 973,
        "Semi-Major Axis(m)": 7083131.272910544,
        "Time(s)": 131
    },
    {
        "Altitude(m)": 707309.408498975,
        "Argument of Periapsis(deg)": 0.007913136824393542,
        "Eccentricity": 0.0,
        "Inclination(deg)": 45.0,
        "Latitude(deg)": 45.15405529371652,
        "Longitude(deg)": -150.75639797793934,
        "Mean Anomaly(deg)": 89.8307505129867,
        "RAAN(deg)": 219.99253023014484,
        "Satellite Name": "Constellation 1 973",
        "Satellite Number": 973,
        "Semi-Major Axis(m)": 7083131.272910544,
        "Time(s)": 132
    }
]